H-2A R/B                
1 28932U 06002B   26178.00731436  .00007579  00000+0  36286-3 0  9995
2 28932  98.2566 334.7258 0049837 228.1670 131.5302 15.18186112111014
RESURS-DK 1             
1 29228U 06021A   26178.08293926  .00002392  00000+0  14026-3 0  9996
2 29228  69.9337 313.9373 0006751 287.1987  72.8440 15.13256263104073
CZ-4B R/B               
1 29507U 06046C   26178.07584695  .00004558  00000+0  22584-3 0  9992
2 29507  97.5451 222.6521 0031140 246.5673 113.2285 15.17852040 76635
CZ-2C R/B               
1 31114U 07010B   26178.27494216  .00000060  00000+0  46752-4 0  9990
2 31114  98.4107 286.1328 0058420 336.6995  23.1536 14.20278186995272
COSMO-SKYMED 1          
1 31598U 07023A   26178.29409929  .00002922  00000+0  25810-3 0  9999
2 31598  97.8860  10.2352 0001775  88.5235 271.6190 14.97153641 31304
COSMOS 2428             
1 31792U 07029A   26178.12592114 -.00000005  00000+0  22751-4 0  9995
2 31792  70.9373 333.6089 0007128 115.8962 244.2895 14.12927835979556
SL-16 R/B               
1 31793U 07029B   26178.10003149 -.00000222  00000+0 -90358-4 0  9999
2 31793  70.9771 302.3902 0002442 263.4090 269.3706 14.14854740980841
KORONAS-FOTON           
1 33504U 09003A   26178.30631243  .00013227  00000+0  27026-3 0  9997
2 33504  82.4283 161.7017 0012462 115.9824 244.2710 15.45925821962663
CZ-2C R/B               
1 37731U 11030B   26178.31954197  .00001256  00000+0  16350-3 0  9990
2 37731  97.8658 133.5229 0052173 355.2851 131.5171 14.81495176806322
H-2A R/B                
1 38341U 12025E   26178.19146023  .00002699  00000+0  24400-3 0  9997
2 38341  98.4820 154.1617 0043012 315.5136  44.2632 14.95761584764582
SHIJIAN-16 (SJ-16)      
1 39358U 13057A   26178.29344559  .00001275  00000+0  12635-3 0  9993
2 39358  74.9729 337.5407 0016510 207.3705 152.6615 14.92623481687854
SL-4 R/B                
1 39679U 14021B   26178.23838974  .00011160  00000+0  22969-3 0  9999
2 39679  51.6028 161.5230 0090746 142.6182 218.1163 15.42144883673161
ALOS-2                  
1 39766U 14029A   26178.28409922  .00004319  00000+0  58489-3 0  9990
2 39766  97.9223 275.3030 0001615  95.4606 264.6789 14.79468270653079
YAOGAN-29               
1 41038U 15069A   26178.29800002  .00000556  00000+0  74961-4 0  9998
2 41038  98.0028 206.9466 0002066  38.4809 321.6552 14.83092718572128
ASTRO-H (HITOMI)        
1 41337U 16012A   26178.21052640  .00002761  00000+0  15756-3 0  9994
2 41337  31.0006   9.4522 0009711 353.5408   6.5104 15.10554078568807
HXMT (HUIYAN)           
1 42758U 17034A   26178.26404869  .00004788  00000+0  23605-3 0  9999
2 42758  43.0134 126.9262 0032113 211.1741 148.7203 15.18543083499193
SAOCOM 1A               
1 43641U 18076A   26178.26263944  .00000074  00000+0  15843-4 0  9995
2 43641  97.8885   4.8647 0001543  81.1814 278.9574 14.82153712417592
H-2A R/B                
1 43682U 18084L   26178.22950241  .00021248  00000+0  44024-3 0  9996
2 43682  98.8571  59.3161 0022183   6.1437 354.0075 15.45535654422673
SAOCOM 1B               
1 46265U 20059A   26178.29381301  .00000650  00000+0  88218-4 0  9991
2 46265  97.8889   3.9910 0001635  82.3044 277.8355 14.82147338314985
CSS (TIANHE)            
1 48274U 21035A   26178.27740249  .00022896  00000+0  26515-3 0  9993
2 48274  41.4688 260.5778 0008136 162.4826 197.6295 15.61248881294749
COSMOS 2550             
1 48865U 21056A   26178.26165868  .00017028  00000+0  52263-3 0  9999
2 48865  67.1440  69.4301 0008274 269.5957  90.4250 15.33807225280266
CZ-2C R/B               
1 52794U 22058K   26178.09272096  .00041745  00000+0  45055-3 0  9995
2 52794  50.1853 111.9511 0031904 308.3908  51.4202 15.62538828227191
CZ-2C R/B               
1 54039U 22132E   26178.27326100  .00066847  00000+0  49217-3 0  9992
2 54039  97.2893 185.7551 0013972  52.2125 308.0402 15.72729096207534
GSLV R/B                
1 54149U 22138AN  26178.27641815  .00003390  00000+0  28833-3 0  9998
2 54149  87.3811 129.5961 0023982 110.2060 250.1754 14.97302410200322
XRISM                   
1 57800U 23137A   26178.02365504  .00004965  00000+0  27222-3 0  9996
2 57800  31.0027 295.8825 0007808  62.6884 297.4549 15.12547205154351
ACS3                    
1 59588U 24077B   26177.53402066  .00004974  00000+0  36073-2 0  9998
2 59588  97.1683  94.2429 0095187  57.1858 303.8432 13.94542288109341
CZ-8A R/B               
1 66004U 25231K   26178.18378546 -.00000002  00000+0  57663-4 0  9998
2 66004  50.0056 356.7861 0116493 259.1924  99.5862 14.30157465 36370
SZ-21 MODULE            
1 66515U 25246C   26177.58965000  .00043902  00000+0  26051-3 0  9992
2 66515  41.4719 248.7328 0005018  65.4550 294.6818 15.77194503 35226
