OBJECT_NAME,OBJECT_ID,EPOCH,MEAN_MOTION,ECCENTRICITY,INCLINATION,RA_OF_ASC_NODE,ARG_OF_PERICENTER,MEAN_ANOMALY,EPHEMERIS_TYPE,CLASSIFICATION_TYPE,NORAD_CAT_ID,ELEMENT_SET_NO,REV_AT_EPOCH,BSTAR,MEAN_MOTION_DOT,MEAN_MOTION_DDOT
H-2A R/B,2006-002B,2026-06-27T00:10:31.960704,15.18186112,.00498371,98.2566,334.7258,228.1670,131.5302,0,U,28932,999,11101,.36285741E-3,.7579E-4,0
RESURS-DK 1,2006-021A,2026-06-27T01:59:25.952064,15.13256263,.00067514,69.9337,313.9373,287.1987,72.8440,0,U,29228,999,10407,.1402644E-3,.2392E-4,0
CZ-4B R/B,2006-046C,2026-06-27T01:49:13.176480,15.17852040,.00311401,97.5451,222.6521,246.5673,113.2285,0,U,29507,999,7663,.22584105E-3,.4558E-4,0
CZ-2C R/B,2007-010B,2026-06-27T06:35:55.002624,14.20278186,.00584207,98.4107,286.1328,336.6995,23.1536,0,U,31114,999,99527,.46752493E-4,.6E-6,0
COSMO-SKYMED 1,2007-023A,2026-06-27T07:03:30.178656,14.97153641,.00017753,97.8860,10.2352,88.5235,271.6190,0,U,31598,999,3130,.25809954E-3,.2922E-4,0
COSMOS 2428,2007-029A,2026-06-27T03:01:19.586496,14.12927835,.00071289,70.9373,333.6089,115.8962,244.2895,0,U,31792,999,97955,.22751379E-4,-.5E-7,0
SL-16 R/B,2007-029B,2026-06-27T02:24:02.720736,14.14854740,.00024429,70.9771,302.3902,263.4090,269.3706,0,U,31793,999,98084,-.90358307E-4,-.222E-5,0
KORONAS-FOTON,2009-003A,2026-06-27T07:21:05.393952,15.45925821,.00124629,82.4283,161.7017,115.9824,244.2710,0,U,33504,999,96266,.27026077E-3,.13227E-3,0
CZ-2C R/B,2011-030B,2026-06-27T07:40:08.426208,14.81495176,.00521733,97.8658,133.5229,355.2851,131.5171,0,U,37731,999,80632,.16350273E-3,.1256E-4,0
H-2A R/B,2012-025E,2026-06-27T04:35:42.163872,14.95761584,.00430123,98.4820,154.1617,315.5136,44.2632,0,U,38341,999,76458,.24399794E-3,.2699E-4,0
SHIJIAN-16 (SJ-16),2013-057A,2026-06-27T07:02:33.698976,14.92623481,.00165103,74.9729,337.5407,207.3705,152.6615,0,U,39358,999,68785,.12635185E-3,.1275E-4,0
SL-4 R/B,2014-021B,2026-06-27T05:43:16.873536,15.42144883,.00907464,51.6028,161.5230,142.6182,218.1163,0,U,39679,999,67316,.22969148E-3,.1116E-3,0
ALOS-2,2014-029A,2026-06-27T06:49:06.172608,14.79468270,.00016152,97.9223,275.3030,95.4606,264.6789,0,U,39766,999,65307,.58489072E-3,.4319E-4,0
YAOGAN-29,2015-069A,2026-06-27T07:09:07.201728,14.83092718,.00020668,98.0028,206.9466,38.4809,321.6552,0,U,41038,999,57212,.74960717E-4,.556E-5,0
ASTRO-H (HITOMI),2016-012A,2026-06-27T05:03:09.480960,15.10554078,.0009711,31.0006,9.4522,353.5408,6.5104,0,U,41337,999,56880,.15756214E-3,.2761E-4,0
HXMT (HUIYAN),2017-034A,2026-06-27T06:20:13.806816,15.18543083,.00321139,43.0134,126.9262,211.1741,148.7203,0,U,42758,999,49919,.23605451E-3,.4788E-4,0
SAOCOM 1A,2018-076A,2026-06-27T06:18:12.047616,14.82153712,.00015432,97.8885,4.8647,81.1814,278.9574,0,U,43641,999,41759,.15843462E-4,.74E-6,0
H-2A R/B,2018-084L,2026-06-27T05:30:29.008224,15.45535654,.00221832,98.8571,59.3161,6.1437,354.0075,0,U,43682,999,42267,.44023847E-3,.21248E-3,0
SAOCOM 1B,2020-059A,2026-06-27T07:03:05.444064,14.82147338,.00016352,97.8889,3.9910,82.3044,277.8355,0,U,46265,999,31498,.88218357E-4,.65E-5,0
CSS (TIANHE),2021-035A,2026-06-27T06:39:27.575136,15.61248881,.00081364,41.4688,260.5778,162.4826,197.6295,0,U,48274,999,29474,.26515193E-3,.22896E-3,0
COSMOS 2550,2021-056A,2026-06-27T06:16:47.309952,15.33807225,.0008274,67.1440,69.4301,269.5957,90.4250,0,U,48865,999,28026,.52263E-3,.17028E-3,0
CZ-2C R/B,2022-058K,2026-06-27T02:13:31.090944,15.62538828,.00319048,50.1853,111.9511,308.3908,51.4202,0,U,52794,999,22719,.45055238E-3,.41745E-3,0
CZ-2C R/B,2022-132E,2026-06-27T06:33:29.750400,15.72729096,.00139722,97.2893,185.7551,52.2125,308.0402,0,U,54039,999,20753,.49217071E-3,.66847E-3,0
GSLV R/B,2022-138AN,2026-06-27T06:38:02.528160,14.97302410,.00239827,87.3811,129.5961,110.2060,250.1754,0,U,54149,999,20032,.28832827E-3,.339E-4,0
XRISM,2023-137A,2026-06-27T00:34:03.795456,15.12547205,.00078088,31.0027,295.8825,62.6884,297.4549,0,U,57800,999,15435,.27222211E-3,.4965E-4,0
ACS3,2024-077B,2026-06-26T12:48:59.385024,13.94542288,.0095187,97.1683,94.2429,57.1858,303.8432,0,U,59588,999,10934,.36073E-2,.4974E-4,0
CZ-8A R/B,2025-231K,2026-06-27T04:24:39.063744,14.30157465,.01164937,50.0056,356.7861,259.1924,99.5862,0,U,66004,999,3637,.57663447E-4,-.2E-7,0
SZ-21 MODULE,2025-246C,2026-06-26T14:09:05.760000,15.77194503,.0005018,41.4719,248.7328,65.4550,294.6818,0,U,66515,999,3522,.26051E-3,.43902E-3,0
